STARLINK-5760
1 55591U 23020Y   26061.16668981  .00021219  00000+0  14875-2 0  9993
2 55591  43.0006  45.3521 0000617 255.3868 318.9853 15.04831202  5818
STARLINK-30128
1 56832U 23079K   26061.16668981  .00040895  00000+0  28444-2 0  9994
2 56832  43.0003 122.2310 0001048 326.1389 188.6993 15.04846262  5818
STARLINK-5808
1 56927U 23083BD  26061.16668981  .00036973  00000+0  25752-2 0  9995
2 56927  43.0003  20.0794 0000529 266.9182 327.1005 15.04834288  5818
